[{"OBJECT_NAME":"COSMOS 1953","OBJECT_ID":"1988-050A","EPOCH":"2026-03-03T08:10:40.571040","MEAN_MOTION":15.28384705,"ECCENTRICITY":0.0012182,"INCLINATION":82.5118,"RA_OF_ASC_NODE":164.6303,"ARG_OF_PERICENTER":143.2224,"MEAN_ANOMALY":216.9854,"EPHEMERIS_TYPE":0,"CLASSIFICATION_TYPE":"U","NORAD_CAT_ID":19210,"ELEMENT_SET_NO":999,"REV_AT_EPOCH":3681,"BSTAR":0.00036736,"MEAN_MOTION_DOT":0.00010207,"MEAN_MOTION_DDOT":0},{"OBJECT_NAME":"SL-8 R/B","OBJECT_ID":"1988-053B","EPOCH":"2026-03-03T11:26:20.811264","MEAN_MOTION":14.3891137,"ECCENTRICITY":0.0021284,"INCLINATION":74.0469,"RA_OF_ASC_NODE":123.919,"ARG_OF_PERICENTER":304.1293,"MEAN_ANOMALY":157.632,"EPHEMERIS_TYPE":0,"CLASSIFICATION_TYPE":"U","NORAD_CAT_ID":19257,"ELEMENT_SET_NO":999,"REV_AT_EPOCH":97570,"BSTAR":0.00011426,"MEAN_MOTION_DOT":3.26e-6,"MEAN_MOTION_DDOT":0},{"OBJECT_NAME":"COSMOS 1975","OBJECT_ID":"1988-093A","EPOCH":"2026-03-03T07:22:16.236768","MEAN_MOTION":15.27952551,"ECCENTRICITY":0.0011539,"INCLINATION":82.5199,"RA_OF_ASC_NODE":124.0918,"ARG_OF_PERICENTER":185.4329,"MEAN_ANOMALY":174.6787,"EPHEMERIS_TYPE":0,"CLASSIFICATION_TYPE":"U","NORAD_CAT_ID":19573,"ELEMENT_SET_NO":999,"REV_AT_EPOCH":1843,"BSTAR":0.00034417,"MEAN_MOTION_DOT":9.437e-5,"MEAN_MOTION_DDOT":0},{"OBJECT_NAME":"SL-14 R/B","OBJECT_ID":"1988-093B","EPOCH":"2026-03-03T11:26:45.132864","MEAN_MOTION":14.85647444,"ECCENTRICITY":0.0022117,"INCLINATION":82.5293,"RA_OF_ASC_NODE":47.8765,"ARG_OF_PERICENTER":60.9018,"MEAN_ANOMALY":59.3481,"EPHEMERIS_TYPE":0,"CLASSIFICATION_TYPE":"U","NORAD_CAT_ID":19574,"ELEMENT_SET_NO":999,"REV_AT_EPOCH":9,"BSTAR":8.3655e-5,"MEAN_MOTION_DOT":7.52e-6,"MEAN_MOTION_DDOT":0},{"OBJECT_NAME":"SL-16 R/B","OBJECT_ID":"1988-102B","EPOCH":"2026-03-03T11:27:05.109408","MEAN_MOTION":14.16149386,"ECCENTRICITY":0.0013562,"INCLINATION":71,"RA_OF_ASC_NODE":164.5679,"ARG_OF_PERICENTER":11.0719,"MEAN_ANOMALY":349.07,"EPHEMERIS_TYPE":0,"CLASSIFICATION_TYPE":"U","NORAD_CAT_ID":19650,"ELEMENT_SET_NO":999,"REV_AT_EPOCH":92601,"BSTAR":6.1011e-6,"MEAN_MOTION_DOT":-3.6e-7,"MEAN_MOTION_DDOT":0},{"OBJECT_NAME":"INTERCOSMOS 24","OBJECT_ID":"1989-080A","EPOCH":"2026-03-03T05:02:20.080896","MEAN_MOTION":12.59546135,"ECCENTRICITY":0.1186835,"INCLINATION":82.6032,"RA_OF_ASC_NODE":108.6239,"ARG_OF_PERICENTER":307.875,"MEAN_ANOMALY":42.062,"EPHEMERIS_TYPE":0,"CLASSIFICATION_TYPE":"U","NORAD_CAT_ID":20261,"ELEMENT_SET_NO":999,"REV_AT_EPOCH":66598,"BSTAR":0.00024512,"MEAN_MOTION_DOT":8.25e-6,"MEAN_MOTION_DDOT":0},{"OBJECT_NAME":"SL-14 R/B","OBJECT_ID":"1989-080C","EPOCH":"2026-03-03T09:27:46.556640","MEAN_MOTION":12.50484175,"ECCENTRICITY":0.1230327,"INCLINATION":82.5971,"RA_OF_ASC_NODE":177.2263,"ARG_OF_PERICENTER":199.1354,"MEAN_ANOMALY":155.9376,"EPHEMERIS_TYPE":0,"CLASSIFICATION_TYPE":"U","NORAD_CAT_ID":20262,"ELEMENT_SET_NO":999,"REV_AT_EPOCH":65936,"BSTAR":0.00023453,"MEAN_MOTION_DOT":7.88e-6,"MEAN_MOTION_DDOT":0},{"OBJECT_NAME":"DELTA 1 R/B","OBJECT_ID":"1989-089B","EPOCH":"2026-03-03T11:34:00.378048","MEAN_MOTION":14.50657195,"ECCENTRICITY":0.0070088,"INCLINATION":97.0709,"RA_OF_ASC_NODE":270.9079,"ARG_OF_PERICENTER":141.3074,"MEAN_ANOMALY":219.3175,"EPHEMERIS_TYPE":0,"CLASSIFICATION_TYPE":"U","NORAD_CAT_ID":20323,"ELEMENT_SET_NO":999,"REV_AT_EPOCH":89483,"BSTAR":0.00012378,"MEAN_MOTION_DOT":4.67e-6,"MEAN_MOTION_DDOT":0},{"OBJECT_NAME":"ARIANE 40 R/B","OBJECT_ID":"1990-005H","EPOCH":"2026-03-03T03:25:01.066944","MEAN_MOTION":14.39865183,"ECCENTRICITY":0.0009457,"INCLINATION":98.3098,"RA_OF_ASC_NODE":122.9986,"ARG_OF_PERICENTER":218.9754,"MEAN_ANOMALY":141.0754,"EPHEMERIS_TYPE":0,"CLASSIFICATION_TYPE":"U","NORAD_CAT_ID":20443,"ELEMENT_SET_NO":999,"REV_AT_EPOCH":89186,"BSTAR":0.0001133,"MEAN_MOTION_DOT":3.14e-6,"MEAN_MOTION_DDOT":0},{"OBJECT_NAME":"DELTA 2 R/B(1)","OBJECT_ID":"1990-008B","EPOCH":"2026-03-03T11:16:44.886144","MEAN_MOTION":15.55009119,"ECCENTRICITY":0.0086795,"INCLINATION":35.6035,"RA_OF_ASC_NODE":215.6444,"ARG_OF_PERICENTER":201.1503,"MEAN_ANOMALY":158.5633,"EPHEMERIS_TYPE":0,"CLASSIFICATION_TYPE":"U","NORAD_CAT_ID":20453,"ELEMENT_SET_NO":999,"REV_AT_EPOCH":92516,"BSTAR":0.00090847,"MEAN_MOTION_DOT":0.00075249,"MEAN_MOTION_DDOT":0},{"OBJECT_NAME":"COSMOS 2058","OBJECT_ID":"1990-010A","EPOCH":"2026-03-03T11:46:24.880800","MEAN_MOTION":15.11253022,"ECCENTRICITY":0.0009826,"INCLINATION":82.4666,"RA_OF_ASC_NODE":53.535,"ARG_OF_PERICENTER":3.794,"MEAN_ANOMALY":356.3363,"EPHEMERIS_TYPE":0,"CLASSIFICATION_TYPE":"U","NORAD_CAT_ID":20465,"ELEMENT_SET_NO":999,"REV_AT_EPOCH":94130,"BSTAR":0.00030648,"MEAN_MOTION_DOT":5.186e-5,"MEAN_MOTION_DDOT":0},{"OBJECT_NAME":"SL-14 R/B","OBJECT_ID":"1990-010B","EPOCH":"2026-03-03T00:13:55.902720","MEAN_MOTION":14.83561935,"ECCENTRICITY":0.0018962,"INCLINATION":82.4992,"RA_OF_ASC_NODE":273.6651,"ARG_OF_PERICENTER":325.6443,"MEAN_ANOMALY":34.3545,"EPHEMERIS_TYPE":0,"CLASSIFICATION_TYPE":"U","NORAD_CAT_ID":20466,"ELEMENT_SET_NO":999,"REV_AT_EPOCH":92749,"BSTAR":5.4157e-5,"MEAN_MOTION_DOT":4.71e-6,"MEAN_MOTION_DDOT":0},{"OBJECT_NAME":"SL-14 R/B","OBJECT_ID":"1990-018B","EPOCH":"2026-03-03T11:50:53.158848","MEAN_MOTION":14.82136778,"ECCENTRICITY":0.0017592,"INCLINATION":82.5192,"RA_OF_ASC_NODE":228.8814,"ARG_OF_PERICENTER":110.8501,"MEAN_ANOMALY":249.4599,"EPHEMERIS_TYPE":0,"CLASSIFICATION_TYPE":"U","NORAD_CAT_ID":20511,"ELEMENT_SET_NO":999,"REV_AT_EPOCH":92166,"BSTAR":8.1897e-5,"MEAN_MOTION_DOT":6.77e-6,"MEAN_MOTION_DDOT":0},{"OBJECT_NAME":"HST","OBJECT_ID":"1990-037B","EPOCH":"2026-03-03T10:01:15.221856","MEAN_MOTION":15.29363841,"ECCENTRICITY":0.0001695,"INCLINATION":28.4702,"RA_OF_ASC_NODE":82.7831,"ARG_OF_PERICENTER":63.3001,"MEAN_ANOMALY":296.7768,"EPHEMERIS_TYPE":0,"CLASSIFICATION_TYPE":"U","NORAD_CAT_ID":20580,"ELEMENT_SET_NO":999,"REV_AT_EPOCH":77235,"BSTAR":0.0002994,"MEAN_MOTION_DOT":9.009e-5,"MEAN_MOTION_DDOT":0},{"OBJECT_NAME":"SL-16 R/B","OBJECT_ID":"1990-046B","EPOCH":"2026-03-03T02:56:54.845664","MEAN_MOTION":14.15014698,"ECCENTRICITY":0.0016124,"INCLINATION":71.0003,"RA_OF_ASC_NODE":311.7062,"ARG_OF_PERICENTER":308.4467,"MEAN_ANOMALY":51.5208,"EPHEMERIS_TYPE":0,"CLASSIFICATION_TYPE":"U","NORAD_CAT_ID":20625,"ELEMENT_SET_NO":999,"REV_AT_EPOCH":84746,"BSTAR":-6.4098e-5,"MEAN_MOTION_DOT":-1.72e-6,"MEAN_MOTION_DDOT":0},{"OBJECT_NAME":"COSMOS 2084","OBJECT_ID":"1990-055A","EPOCH":"2026-03-03T05:07:04.397376","MEAN_MOTION":15.05602026,"ECCENTRICITY":0.0018109,"INCLINATION":62.7926,"RA_OF_ASC_NODE":357.665,"ARG_OF_PERICENTER":188.5844,"MEAN_ANOMALY":171.4949,"EPHEMERIS_TYPE":0,"CLASSIFICATION_TYPE":"U","NORAD_CAT_ID":20663,"ELEMENT_SET_NO":999,"REV_AT_EPOCH":93534,"BSTAR":0.00026164,"MEAN_MOTION_DOT":3.603e-5,"MEAN_MOTION_DDOT":0},{"OBJECT_NAME":"SL-6 R/B(2)","OBJECT_ID":"1990-055D","EPOCH":"2026-03-02T23:42:02.248992","MEAN_MOTION":15.03555926,"ECCENTRICITY":0.0023719,"INCLINATION":62.782,"RA_OF_ASC_NODE":276.6432,"ARG_OF_PERICENTER":345.38,"MEAN_ANOMALY":14.661,"EPHEMERIS_TYPE":0,"CLASSIFICATION_TYPE":"U","NORAD_CAT_ID":20666,"ELEMENT_SET_NO":999,"REV_AT_EPOCH":93718,"BSTAR":0.00018473,"MEAN_MOTION_DOT":2.348e-5,"MEAN_MOTION_DDOT":0}]
